QIANFAN-33              
1 61566U 24185Q   25220.00597191  .00000195  00000+0  13152-3 0  9996
2 61566  88.9777  92.9580 0007633  17.7907 342.3535 13.96408602 51476
QIANFAN-34              
1 61567U 24185R   25219.99134036  .00000311  00000+0  19417-3 0  9998
2 61567  88.9753  92.6905 0007031  31.4038 328.7561 14.02159988 51621
QIANFAN-35              
1 61568U 24185S   25220.05826568  .00000552  00000+0  21828-3 0  9992
2 61568  88.9778  91.7693 0006777   2.8407 357.2825 14.27663492 52102
QIANFAN-36              
1 61569U 24185T   25220.00275024  .00000152  00000+0  20181-3 0  9990
2 61569  88.9767  94.2656 0007936  57.3620 302.8298 13.55545487 50806
QIANFAN-37              
1 62238U 24232B   25220.04532392  .00000083  00000+0  10932-3 0  9991
2 62238  88.9923  54.1400 0002627  92.4624 267.6828 13.50965532 82064
QIANFAN-38              
1 62239U 24232C   25220.07017275  .00000062  00000+0  77835-4 0  9996
2 62239  88.9930  54.0446 0013908 194.0029 166.0739 13.50963304 82129
QIANFAN-39              
1 62240U 24232D   25220.05308381  .00000156  00000+0  59989-4 0  9991
2 62240  88.9929  51.8155 0017901 128.4385 231.8418 14.25230790 83343
QIANFAN-40              
1 62241U 24232E   25220.10301651  .00000050  00000+0  59064-4 0  9998
2 62241  88.9957  53.5902 0012701 201.7097 158.3517 13.50959988 82494
